stk.v.4.3		

# WrittenBy    STK_v11.6.0

BEGIN Ephemeris

    NumberOfEphemerisPoints		 241

    ScenarioEpoch		 22 Mar 2026 04:00:00.000000

# Epoch in JDate format: 2461121.66666666666667
# Epoch in YYDDD format:   26081.16666666666667


    InterpolationMethod		 Lagrange

    InterpolationOrder		 5

    CentralBody		 Earth

    CoordinateSystem		 J2000

# Time of first point: 22 Mar 2026 00:00:00.000000000 UTCG = 2461121.50000000000000 JDate = 26081.00000000000000 YYDDD

    EphemerisTimePosVel		

-7.6800000000000000e+03 -5.7279345519860424e+06 -3.0173369145517102e+06 -1.6382788233438828e+06  3.9720171469219149e+03 -5.8234779723709653e+03 -3.1618910810605466e+03
-7.6200000000000000e+03 -5.4760115587268230e+06 -3.3591991082174969e+06 -1.8238948848028574e+06  4.4220440632968466e+03 -5.5673527808450463e+03 -3.0228265637478830e+03
-7.5600000000000000e+03 -5.1977152772839228e+06 -3.6848828980945898e+06 -2.0007267965387863e+06  4.8507737561004506e+03 -5.2844143881895006e+03 -2.8692036629777103e+03
-7.5000000000000000e+03 -4.8943860240446636e+06 -3.9928197424893617e+06 -2.1679229096977748e+06  5.2561413992056878e+03 -4.9760254678913097e+03 -2.7017622495465735e+03
-7.4400000000000000e+03 -4.5674846779215541e+06 -4.2815265716431877e+06 -2.3246779828686318e+06  5.6361946815996653e+03 -4.6436712669739691e+03 -2.5213087462684507e+03
-7.3800000000000000e+03 -4.2185856445408072e+06 -4.5496129304186283e+06 -2.4702370602456145e+06  5.9891032100056982e+03 -4.2889524528253487e+03 -2.3287122441222109e+03
-7.3200000000000000e+03 -3.8493692736715213e+06 -4.7957876749372743e+06 -2.6038991076081130e+06  6.3131673243287978e+03 -3.9135774041466989e+03 -2.1249003165798949e+03
-7.2600000000000000e+03 -3.4616137664084132e+06 -5.0188651909233611e+06 -2.7250203886060338e+06  6.6068262834743473e+03 -3.5193539831432099e+03 -1.9108545522745469e+03
-7.2000000000000000e+03 -3.0571866110920203e+06 -5.2177711037971145e+06 -2.8330175650900071e+06  6.8686657821080935e+03 -3.1081808285924380e+03 -1.6876058275230137e+03
-7.1400000000000000e+03 -2.6380355892055309e+06 -5.3915474530237047e+06 -2.9273705065549253e+06  7.0974247621623272e+03 -2.6820382117157237e+03 -1.4562293414718633e+03
-7.0800000000000000e+03 -2.2061793945693676e+06 -5.5393573057936355e+06 -3.0076247951659872e+06  7.2920014862791750e+03 -2.2429784988975430e+03 -1.2178394377780121e+03
-7.0200000000000000e+03 -1.7636979110098446e+06 -5.6604887878164081e+06 -3.0733939143027593e+06  7.4514588439424624e+03 -1.7931162671818022e+03 -9.7358423776346910e+02
-6.9600000000000000e+03 -1.3127221953295842e+06 -5.7543585118128015e+06 -3.1243611100808550e+06  7.5750288647412244e+03 -1.3346181201548568e+03 -7.2464011089190649e+02
-6.9000000000000000e+03 -8.5542421381911158e+05 -5.8205143871953478e+06 -3.1602809168858612e+06  7.6621164170300844e+03 -8.6969225325818240e+02 -4.7220600919786864e+02
-6.8400000000000000e+03 -3.9400638174442702e+05 -5.8586377974037491e+06 -3.1809803395723496e+06  7.7123020741717237e+03 -4.0057781879127526e+02 -2.1749769295503651e+02
-6.7800000000000000e+03  6.9309043814234581e+04 -5.8685451344099306e+06 -3.1863596866342821e+06  7.7253441345582942e+03  7.0465858180912548e+01  3.8258124606551917e+01
-6.7200000000000000e+03  5.3229066668335907e+05 -5.8501886830015630e+06 -3.1763930503341700e+06  7.7011797856822977e+03  5.4117016107369261e+02  2.9382968533431688e+02
-6.6600000000000000e+03  9.9270869833320228e+05 -5.8036568505856534e+06 -3.1511284314786112e+06  7.6399254066509739e+03  1.0092681077788769e+03  5.4798611848407370e+02
-6.6000000000000000e+03  1.4483456968708171e+06 -5.7291737414054051e+06 -3.1106875082392287e+06  7.5418760076873214e+03  1.4725052687872815e+03  7.9950336877706411e+02
-6.5400000000000000e+03  1.8970072465723846e+06 -5.6270980772206094e+06 -3.0552650501324721e+06  7.4075038093166768e+03  1.9286506248594424e+03  1.0471700916326968e+03
-6.4800000000000000e+03  2.3365325265155258e+06 -5.4979214696502415e+06 -2.9851279799805721e+06  7.2374559680823604e+03  2.3755073119455710e+03  1.2897934871846662e+03
-6.4200000000000000e+03  2.7648047174154185e+06 -5.3422660524975378e+06 -2.9006140883714315e+06  7.0325514597431829e+03  2.8109232016108831e+03  1.5262050449829678e+03
-6.3600000000000000e+03  3.1797611965416451e+06 -5.1608814854610534e+06 -2.8021304068087866e+06  6.7937771349643272e+03  3.2328012660064051e+03  1.7552661717144572e+03
-6.3000000000000000e+03  3.5794034716175245e+06 -4.9546413436614498e+06 -2.6901512473877915e+06  6.5222829664970277e+03  3.6391096774687458e+03  1.9758736748380184e+03
-6.2400000000000000e+03  3.9618068058565445e+06 -4.7245389103735723e+06 -2.5652159184372514e+06  6.2193765107384879e+03  4.0278915941045684e+03  2.1869650757243394e+03
-6.1800000000000000e+03  4.3251294877814017e+06 -4.4716823932263944e+06 -2.4279261271302807e+06  5.8865166103455749e+03  4.3972745842325494e+03  2.3875237267114117e+03
-6.1200000000000000e+03  4.6676217011818336e+06 -4.1972895869092271e+06 -2.2789430815728554e+06  5.5253063682304773e+03  4.7454796442944898e+03  2.5765837074312617e+03
-6.0600000000000000e+03  4.9876339524895800e+06 -3.9026820080916379e+06 -2.1189843063269705e+06  5.1374854267787568e+03  5.0708297668006790e+03  2.7532344768264693e+03
-6.0000000000000000e+03  5.2836250149860689e+06 -3.5892785308014359e+06 -1.9488201867053639e+06  4.7249215894715344e+03  5.3717580170489200e+03  2.9166252584516687e+03
-5.9400000000000000e+03  5.5541693515796801e+06 -3.2585885529162162e+06 -1.7692702584809833e+06  4.2896018252658614e+03  5.6468150797151620e+03  3.0659691379397664e+03
-5.8800000000000000e+03  5.7979639804051826e+06 -2.9122047266777223e+06 -1.5811992608804998e+06  3.8336226990555383e+03  5.8946762389725163e+03  3.2005468528988649e+03
-5.8200000000000000e+03  6.0138347501781555e+06 -2.5517952882422083e+06 -1.3855129718712533e+06  3.3591802743030339e+03  6.1141477585195180e+03  3.3197102569871968e+03
-5.7600000000000000e+03  6.2007419950834559e+06 -2.1790960232048677e+06 -1.1831538457995059e+06  2.8685595364688711e+03  6.3041726307932122e+03  3.4228854414825423e+03
-5.7000000000000000e+03  6.3577855419602655e+06 -1.7959019067985520e+06 -9.7509647438977950e+05  2.3641233881819239e+03  6.4638356676744570e+03  3.5095754993122155e+03
-5.6400000000000000e+03  6.4842090456703957e+06 -1.4040584590250426e+06 -7.6234289296579326e+05  1.8483012691476576e+03  6.5923679081705923e+03  3.5793629182316149e+03
-5.5800000000000000e+03  6.5794036317691607e+06 -1.0054528563560963e+06 -5.4591775449893135e+05  1.3235774556048325e+03  6.6891503218460593e+03  3.6319115916254468e+03
-5.5200000000000000e+03  6.6429108289356874e+06 -6.0200484280916979e+05 -3.2686339472675062e+05  7.9247909567969202e+02  6.7537167901655930e+03  3.6669684372473057e+03
-5.4600000000000000e+03  6.6744247770389542e+06 -1.9565748417512825e+05 -1.0623481210864699e+05  2.5756403826493761e+02  6.7857563513902978e+03  3.6843646161015026e+03
-5.4000000000000000e+03  6.6737937002059342e+06  2.1163219007748686e+05  1.1490541320403415e+05 -2.7859148596310899e+02  6.7851146982159389e+03  3.6840163455968468e+03
-5.3400000000000000e+03  6.6410206377967540e+06  6.1790261214701715e+05  3.3549223691244266e+05 -8.1340527205439298e+02  6.7517949209398394e+03  3.6659253030560999e+03
-5.2800000000000000e+03  6.5762634297667006e+06  1.0211971231027270e+06  5.5446327998237824e+05 -1.3443015770702286e+03  6.6859574925775705e+03  3.6301786176377318e+03
-5.2200000000000000e+03  6.4798339564854689e+06  1.4195733964454164e+06  7.7076394522012502e+05 -1.8687235252447965e+03  6.5879194960009727e+03  3.5769484507089051e+03
-5.1600000000000000e+03  6.3521966366747478e+06  1.8111127926416832e+06  9.8335249636978540e+05 -2.3841454222803191e+03  6.4581530968197103e+03  3.5064911666906632e+03
-5.1000000000000000e+03  6.1939661906985044e+06  2.1939295995776313e+06  1.1912050752704209e+06 -2.8880849194670072e+03  6.2972832693614473e+03  3.4191460983686470e+03
-5.0400000000000000e+03  6.0059046799780484e+06  2.5661801144298338e+06  1.3933206329096179e+06 -3.3781149690448547e+03  6.1060847867022394e+03  3.3153339126158039e+03
-4.9800000000000000e+03  5.7889178367904406e+06  2.9260715232133619e+06  1.5887257506247989e+06 -3.8518755132278516e+03  5.8854784892437128e+03  3.1955545843980044e+03
-4.9200000000000000e+03  5.5440507021268755e+06  3.2718705352409068e+06  1.7764793282326425e+06 -4.3070848505938493e+03  5.6365268498084642e+03  3.0603849888200502e+03
-4.8600000000000000e+03  5.2724825926196678e+06  3.6019117309088740e+06  1.9556771165078937e+06 -4.7415506250984945e+03  5.3604288566128434e+03  2.9104761228091620e+03
-4.8000000000000000e+03  4.9755214207771225e+06  3.9146055826072334e+06  2.1254560721824635e+06 -5.1531803847895826e+03  5.0585142387603937e+03  2.7465499698166991e+03
-4.7400000000000000e+03  4.6545973958820207e+06  4.2084461101211198e+06  2.2849985144904894e+06 -5.5399916593672569e+03  4.7322370620684287e+03  2.5693960226382083e+03
-4.6800000000000000e+03  4.3112561358906738e+06  4.4820181336558992e+06  2.4335360632408364e+06 -5.9001215080563761e+03  4.3831687260705266e+03  2.3798674810984048e+03
-4.6200000000000000e+03  3.9471512235062318e+06  4.7340040895543275e+06  2.5703533394506564e+06 -6.2318354918073373e+03  4.0129903959218445e+03  2.1788771429135863e+03
-4.5600000000000000e+03  3.5640362422775957e+06  4.9631903758797431e+06  2.6947914107172503e+06 -6.5335360266132857e+03  3.6234849056568023e+03  1.9673930075217404e+03
-4.5000000000000000e+03  3.1637563310798672e+06  5.1684731973036584e+06  2.8062509647347583e+06 -6.8037700777126392e+03  3.2165281717948833e+03  1.7464336140528992e+03
-4.4400000000000000e+03  2.7482392976501887e+06  5.3488638811488012e+06  2.9041951956715998e+06 -7.0412361576213061e+03  2.7940801586467028e+03  1.5170631358928308e+03
-4.3800000000000000e+03  2.3194863339787051e+06  5.5034936389839081e+06  2.9881523895073864e+06 -7.2447905942902253e+03  2.3581754388342765e+03  1.2803862554653253e+03
END Ephemeris
